[{"OBJECT_NAME":"ONEWEB-0038","OBJECT_ID":"2020-008Q","EPOCH":"2026-03-09T21:45:46.186848","MEAN_MOTION":13.11417745,"ECCENTRICITY":0.0002225,"INCLINATION":87.8873,"RA_OF_ASC_NODE":40.8038,"ARG_OF_PERICENTER":130.7833,"MEAN_ANOMALY":229.3488,"EPHEMERIS_TYPE":0,"CLASSIFICATION_TYPE":"U","NORAD_CAT_ID":45145,"ELEMENT_SET_NO":999,"REV_AT_EPOCH":29731,"BSTAR":0.0015539357,"MEAN_MOTION_DOT":5.63e-6,"MEAN_MOTION_DDOT":0},{"OBJECT_NAME":"CZ-4 DEB","OBJECT_ID":"1990-081AW","EPOCH":"2026-03-09T08:38:57.556896","MEAN_MOTION":13.55703753,"ECCENTRICITY":0.02426714,"INCLINATION":99.0045,"RA_OF_ASC_NODE":218.1726,"ARG_OF_PERICENTER":15.3524,"MEAN_ANOMALY":46.2482,"EPHEMERIS_TYPE":0,"CLASSIFICATION_TYPE":"U","NORAD_CAT_ID":20886,"ELEMENT_SET_NO":999,"REV_AT_EPOCH":74884,"BSTAR":0.00028582766,"MEAN_MOTION_DOT":2.02e-6,"MEAN_MOTION_DDOT":0}]
